CAS-2T & KS-1Q          
1 41847U 16066G   20340.92300858  .00000175  00000-0  35686-4 0  9992
2 41847  98.6315  32.9624 0366554  77.8744 286.3252 14.38122408214064
NAYIF-1 (EO-88)         
1 42017U 17008BX  20340.87313573  .00004285  00000-0  16360-3 0  9994
2 42017  97.3413  45.8052 0007751  79.5039 280.7073 15.27150711211708
ZHUHAI-1 02 (CAS-4B)    
1 42759U 17034B   20341.03240638  .00000666  00000-0  53672-4 0  9993
2 42759  43.0165 164.2591 0009987  24.1641 119.5676 15.09986680191904
ZHUHAI-1 01 (CAS-4A)    
1 42761U 17034D   20341.03397889  .00000726  00000-0  57210-4 0  9996
2 42761  43.0163 163.4361 0010455  25.8927 118.4667 15.10067028191904
MAX VALIER SAT          
1 42778U 17036P   20340.71900810  .00002367  00000-0  10333-3 0  9991
2 42778  97.2833  29.4351 0013347 134.4370 225.7962 15.23012962191797
RADFXSAT (FOX-1B)       
1 43017U 17073E   20341.02493600  .00001063  00000-0  87891-4 0  9994
2 43017  97.7166 246.5802 0255283 210.9431 147.6527 14.79196480164524
FOX-1D (AO-92)          
1 43137U 18004AC  20341.14920637  .00002908  00000-0  12089-3 0  9995
2 43137  97.4292  51.0181 0009451 162.4134 197.7433 15.24568696161193
DIWATA-2B               
1 43678U 18084H   20341.13462625  .00000043  00000-0  99912-5 0  9990
2 43678  97.9037  99.7345 0009274 337.5731  22.5071 14.91680422114610
ES'HAIL 2               
1 43700U 18090A   20340.90473723  .00000158  00000-0  00000-0 0  9990
2 43700   0.0023   9.9060 0001745 271.1272 145.6480  1.00269415  7423
FOX-1CLIFF (AO-95)      
1 43770U 18099N   20340.44578592  .00000305  00000-0  32994-4 0  9990
2 43770  97.6895  48.6945 0014244 351.8094   8.2892 14.95123653109466
ITASAT 1                
1 43786U 18099AE  20341.14084944  .00000977  00000-0  93399-4 0  9999
2 43786  97.6910  49.9182 0014511 342.6033  17.4689 14.95445168109594
JY1SAT (JO-97)          
1 43803U 18099AX  20340.46484960  .00000854  00000-0  81885-4 0  9996
2 43803  97.6869  49.0363 0014523 344.7637  15.3145 14.95646968109499
PSAT2 (NO-104)          
1 44354U 19036R   20341.12982792  .00027588  00000-0  39157-3 0  9997
2 44354  28.5310 330.3767 0347823 349.0544  10.2635 15.07706785 79702
BRICSAT2 (NO-103)       
1 44355U 19036S   20340.61511299  .00052528  00000-0  67404-3 0  9999
2 44355  28.5289 313.3818 0310985  16.6717 344.3846 15.17203572 79841
JAISAT-1                
1 44419U 19038F   20340.65677775  .00002563  00000-0  14764-3 0  9993
2 44419  97.5628 300.4931 0019643 260.1181  99.7833 15.13171895 78480
DUCHIFAT-3              
1 44854U 19089C   20341.20292501  .00000981  00000-0  85340-4 0  9995
2 44854  36.9636 163.2455 0009172   4.7254 355.3566 14.99235634 54083
RS-44 & BREEZE-KM R/B   
1 44909U 19096E   20340.81281483  .00000029  00000-0  70026-4 0  9995
2 44909  82.5230 241.4432 0217176 185.5982 174.2689 12.79707706 44102
ORBITAL FACTORY 2 (OF-2)
1 45113U 19071C   20341.04991571  .00006530  00000-0  20451-3 0  9997
2 45113  51.6420 254.1881 0011927 318.0795  41.9273 15.34286527 47466
HUSKYSAT-1              
1 45119U 19071J   20340.94180566  .00004544  00000-0  14519-3 0  9996
2 45119  51.6418 254.2163 0011251 314.5694  45.4369 15.34432077 47448
BY70-2                  
1 45857U 20042B   20341.20022832  .00002217  00000-0  32515-3 0  9997
2 45857  98.0013  52.8753 0012589 116.2616 243.9877 14.76518391 23022
SALSAT                  
1 46495U 20068K   20340.90845520  .00001293  00000-0  99687-4 0  9994
2 46495  97.6744 273.7749 0018127  10.4791 349.6809 15.03273614 10256
BY70-3                  
1 46839U 20079N   20341.17377875  .00005268  00000-0  17084-3 0  9997
2 46839  97.2628  52.8208 0007792 166.9687 278.9160 15.32375178  4592
